NORAD_CAT_ID,OBJECT_NAME,OBJECT_TYPE,EPOCH,MEAN_MOTION,ECCENTRICITY,INCLINATION,RA_OF_ASC_NODE,ARG_OF_PERICENTER,MEAN_ANOMALY,BSTAR,MEAN_MOTION_DOT,MEAN_MOTION_DDOT,TLE_LINE0,TLE_LINE1,TLE_LINE2,SEMIMAJOR_AXIS,PERIOD,APOGEE,PERIGEE,DECAYED
49159.0,STARLINK-3056,PAYLOAD,2022-12-23 01:11:11,14.98336715,0.000287,69.9977,11.109000000000002,256.5204,103.5636,0.00021967,2.529e-05,0.0,0 STARLINK-3056,1 49159U 21082AF  22357.04944354  .00002529  00000-0  21967-3 0  9999,2 49159  69.9977  11.1090 0002870 256.5204 103.5636 14.98336715 71425,6950.172,96.107,574.0319999999998,570.0419999999998,0.0
49159.0,STARLINK-3056,PAYLOAD,2022-12-23 09:11:52,14.98331615,0.0002936,69.9977,10.267,257.0833,102.9998,0.00011804,1.316e-05,0.0,0 STARLINK-3056,1 49159U 21082AF  22357.38324791  .00001316  00000-0  11804-3 0  9995,2 49159  69.9977  10.2670 0002936 257.0833 102.9998 14.98331615 71479,6950.188,96.107,574.0930000000002,570.012,0.0
49159.0,STARLINK-3056,PAYLOAD,2022-12-23 18:48:40,14.98339393,0.0002935,69.9978,9.2569,257.085,102.9982,0.00015395,1.745e-05,0.0,0 STARLINK-3056,1 49159U 21082AF  22357.78380166  .00001745  00000-0  15395-3 0  9992,2 49159  69.9978   9.2569 0002935 257.0850 102.9982 14.98339393 71534,6950.1640000000025,96.106,574.069,569.989,0.0
49159.0,STARLINK-3056,PAYLOAD,2022-12-24 01:13:12,14.98344437,0.0002967,69.9976,8.5833,257.6361,102.4466,0.00015681,1.779e-05,0.0,0 STARLINK-3056,1 49159U 21082AF  22358.05083636  .00001779  00000-0  15681-3 0  9990,2 49159  69.9976   8.5833 0002967 257.6361 102.4466 14.98344437 71577,6950.148,96.106,574.075,569.951,0.0
49159.0,STARLINK-3056,PAYLOAD,2022-12-24 10:50:01,14.98336936,0.0003065,69.9976,7.5735,259.60900000000004,100.4724,7.8679e-06,1e-08,0.0,0 STARLINK-3056,1 49159U 21082AF  22358.45140075  .00000001  00000-0  78679-5 0  9990,2 49159  69.9976   7.5735 0003065 259.6090 100.4724 14.98336936 71635,6950.170999999999,96.107,574.1669999999998,569.906,0.0
49159.0,STARLINK-3056,PAYLOAD,2022-12-25 07:39:45,14.983365,0.0003091,69.9975,5.3851,259.1846,100.8966,9.7165e-05,1.067e-05,0.0,0 STARLINK-3056,1 49159U 21082AF  22359.31927585  .00001067  00000-0  97165-4 0  9998,2 49159  69.9975   5.3851 0003091 259.1846 100.8966 14.98336500 71765,6950.1730000000025,96.107,574.186,569.889,0.0
49159.0,STARLINK-3056,PAYLOAD,2022-12-25 10:52:01,14.98334133,0.0003368,69.99600000000001,5.0463,269.3589,90.7184,4.3934e-05,4.31e-06,0.0,0 STARLINK-3056,1 49159U 21082AF  22359.45279799  .00000431  00000-0  43934-4 0  9999,2 49159  69.9960   5.0463 0003368 269.3589  90.7184 14.98334133 71780,6950.18,96.107,574.386,569.7040000000002,0.0
49159.0,STARLINK-3056,PAYLOAD,2022-12-26 01:17:15,14.98326949,0.0002938,69.997,3.5326,261.1889,98.8937,-9.1069e-05,-1.179e-05,0.0,0 STARLINK-3056,1 49159U 21082AF  22360.05364688 -.00001179  00000-0 -91069-4 0  9993,2 49159  69.9970   3.5326 0002938 261.1889  98.8937 14.98326949 71878,6950.2019999999975,96.107,574.109,570.025,0.0
49159.0,STARLINK-3056,PAYLOAD,2022-12-26 02:53:22,14.98328436,0.0002918,69.9974,3.3647,259.6763,100.4067,-4.8734e-05,-6.74e-06,0.0,0 STARLINK-3056,1 49159U 21082AF  22360.12040469 -.00000674  00000-0 -48734-4 0  9999,2 49159  69.9974   3.3647 0002918 259.6763 100.4067 14.98328436 71885,6950.198,96.107,574.091,570.035,0.0
49159.0,STARLINK-3056,PAYLOAD,2022-12-26 09:17:54,14.98353044,0.0002888,69.9976,2.6919,261.687,98.3962,-0.00046546,-5.646e-05,0.0,0 STARLINK-3056,1 49159U 21082AF  22360.38743615 -.00005646  00000-0 -46546-3 0  9992,2 49159  69.9976   2.6919 0002888 261.6870  98.3962 14.98353044 71926,6950.121999999999,96.106,573.994,569.979,0.0
49159.0,STARLINK-3056,PAYLOAD,2022-12-27 09:19:55,14.98342979,0.0002735,69.9973,0.1665,257.5751,102.5102,4.014e-05,3.86e-06,0.0,0 STARLINK-3056,1 49159U 21082AF  22361.38883306  .00000386  00000-0  40140-4 0  9994,2 49159  69.9973   0.1665 0002735 257.5751 102.5102 14.98342979 72073,6950.153,96.106,573.919,570.117,0.0
49159.0,STARLINK-3056,PAYLOAD,2022-12-27 10:56:03,14.98341503,0.000284,69.9972,359.9979,259.1094,100.9745,0.0001402,1.581e-05,0.0,0 STARLINK-3056,1 49159U 21082AF  22361.45559206  .00001581  00000-0  14020-3 0  9996,2 49159  69.9972 359.9979 0002840 259.1094 100.9745 14.98341503 72088,6950.156999999997,96.106,573.996,570.048,0.0
49159.0,STARLINK-3056,PAYLOAD,2022-12-27 17:20:35,14.98342125,0.0002862,69.9975,359.3243,258.3857,101.6981,0.00029288,3.404e-05,0.0,0 STARLINK-3056,1 49159U 21082AF  22361.72262764  .00003404  00000-0  29288-3 0  9994,2 49159  69.9975 359.3243 0002862 258.3857 101.6981 14.98342125 72127,6950.155,96.106,574.01,570.031,0.0
49159.0,STARLINK-3056,PAYLOAD,2022-12-28 09:21:56,14.98333468,0.0002921,69.9976,357.641,259.124,100.959,0.00011775,1.312e-05,0.0,0 STARLINK-3056,1 49159U 21082AF  22362.39023462  .00001312  00000-0  11775-3 0  9996,2 49159  69.9976 357.6410 0002921 259.1240 100.9590 14.98333468 72225,6950.182,96.107,574.077,570.0169999999998,0.0
49159.0,STARLINK-3056,PAYLOAD,2022-12-28 23:47:09,14.98328311,0.0002878,69.9977,356.1257,258.6021,101.4814,-7.8497e-05,-1.029e-05,0.0,0 STARLINK-3056,1 49159U 21082AF  22362.99108140 -.00001029  00000-0 -78497-4 0  9991,2 49159  69.9977 356.1257 0002878 258.6021 101.4814 14.98328311 72317,6950.198,96.107,574.063,570.063,0.0
49159.0,STARLINK-3056,PAYLOAD,2022-12-29 09:23:57,14.98333003,0.0002952,69.9976,355.1152,258.9881,101.0946,-2.52e-05,-3.94e-06,0.0,0 STARLINK-3056,1 49159U 21082AF  22363.39163727 -.00000394  00000-0 -25200-4 0  9996,2 49159  69.9976 355.1152 0002952 258.9881 101.0946 14.98333003 72371,6950.184,96.107,574.1,569.997,0.0
49159.0,STARLINK-3056,PAYLOAD,2022-12-29 17:24:37,14.98333874,0.0003047,69.9976,354.273,257.2852,102.7967,-1.779e-05,-3.05e-06,0.0,0 STARLINK-3056,1 49159U 21082AF  22363.72543575 -.00000305  00000-0 -17790-4 0  9993,2 49159  69.9976 354.2730 0003047 257.2852 102.7967 14.98333874 72422,6950.181,96.107,574.164,569.928,0.0
49159.0,STARLINK-3056,PAYLOAD,2022-12-30 03:01:26,14.98326622,0.0002925,69.9978,353.2633,258.1241,101.959,-5.0361e-05,-6.94e-06,0.0,0 STARLINK-3056,1 49159U 21082AF  22364.12600156 -.00000694  00000-0 -50361-4 0  9999,2 49159  69.9978 353.2633 0002925 258.1241 101.9590 14.98326622 72483,6950.203,96.107,574.101,570.035,0.0
49159.0,STARLINK-3056,PAYLOAD,2022-12-30 09:25:58,14.98324899,0.0002889,69.9981,352.5904,255.4696,104.6143,-1.8101e-05,-3.09e-06,0.0,0 STARLINK-3056,1 49159U 21082AF  22364.39304304 -.00000309  00000-0 -18101-4 0  9993,2 49159  69.9981 352.5904 0002889 255.4696 104.6143 14.98324899 72526,6950.209,96.107,574.082,570.066,0.0
49159.0,STARLINK-3056,PAYLOAD,2022-12-31 01:27:18,14.983345000000002,0.0003078,69.9981,350.907,259.7704,100.3108,0.00018324,2.094e-05,0.0,0 STARLINK-3056,1 49159U 21082AF  22365.06063572  .00002094  00000-0  18324-3 0  9994,2 49159  69.9981 350.9070 0003078 259.7704 100.3108 14.98334500 72625,6950.179,96.107,574.183,569.905,0.0
49159.0,STARLINK-3056,PAYLOAD,2022-12-31 09:27:58,14.98340416,0.0003063999999999,69.998,350.0651,259.8129,100.2685,0.00024876,2.877e-05,0.0,0 STARLINK-3056,1 49159U 21082AF  22365.39443074  .00002877  00000-0  24876-3 0  9997,2 49159  69.9980 350.0651 0003064 259.8129 100.2685 14.98340416 72674,6950.161,96.106,574.155,569.896,0.0
49159.0,STARLINK-3056,PAYLOAD,2022-12-31 15:52:30,14.98346294,0.000308,69.9994,349.3918,260.1302,99.9509,0.00039589,4.636e-05,0.0,0 STARLINK-3056,1 49159U 21082AF  22365.66146983  .00004636  00000-0  39589-3 0  9998,2 49159  69.9994 349.3918 0003080 260.1302  99.9509 14.98346294 72716,6950.143,96.106,574.148,569.867,0.0
49159.0,STARLINK-3056,PAYLOAD,2023-01-01 01:29:19,14.98337268,0.0002961,69.9995,348.3821,260.2456,99.8368,0.00024293,2.807e-05,0.0,0 STARLINK-3056,1 49159U 21082AF  23001.06203275  .00002807  00000-0  24293-3 0  9992,2 49159  69.9995 348.3821 0002961 260.2456  99.8368 14.98337268 72776,6950.17,96.107,574.0930000000002,569.977,0.0
49159.0,STARLINK-3056,PAYLOAD,2023-01-01 09:30:00,14.98322011,0.0003371,69.998,347.5412,259.1646,100.9134,7.4559e-05,7.96e-06,0.0,0 STARLINK-3056,1 49159U 21082AF  23001.39584172  .00000796  00000-0  74559-4 0  9992,2 49159  69.9980 347.5412 0003371 259.1646 100.9134 14.98322011 72822,6950.218000000003,96.108,574.4259999999998,569.74,0.0
49159.0,STARLINK-3056,PAYLOAD,2023-01-01 15:54:32,14.98328797,0.0003441,69.9976,346.8667,260.1061,99.971,5.0019e-05,5.04e-06,0.0,0 STARLINK-3056,1 49159U 21082AF  23001.66287778  .00000504  00000-0  50019-4 0  9996,2 49159  69.9976 346.8667 0003441 260.1061  99.9710 14.98328797 72860,6950.196999999999,96.107,574.453,569.67,0.0
49159.0,STARLINK-3056,PAYLOAD,2023-01-02 09:32:00,14.98341931,0.0003246,69.998,345.0144,260.7356,99.3436,7.6825e-05,8.24e-06,0.0,0 STARLINK-3056,1 49159U 21082AF  23002.39722759  .00000824  00000-0  76825-4 0  9998,2 49159  69.9980 345.0144 0003246 260.7356  99.3436 14.98341931 72978,6950.156,96.106,574.2769999999998,569.765,0.0
49159.0,STARLINK-3056,PAYLOAD,2023-01-02 22:21:05,14.98329092,0.0003273999999999,69.9981,343.6674,259.9953,100.0837,4.1957e-05,4.08e-06,0.0,0 STARLINK-3056,1 49159U 21082AF  23002.93131382  .00000408  00000-0  41957-4 0  9990,2 49159  69.9981 343.6674 0003274 259.9953 100.0837 14.98329092 73054,6950.196,96.107,574.336,569.785,0.0
49159.0,STARLINK-3056,PAYLOAD,2023-01-03 07:57:56,14.98253281,0.0002701,69.9981,342.6576,260.1329,99.9525,0.0018165,0.00021605,0.0,0 STARLINK-3056,1 49159U 21082AF  23003.33190119  .00021605  00000-0  18165-2 0  9993,2 49159  69.9981 342.6576 0002701 260.1329  99.9525 14.98253281 73112,6950.43,96.112,574.172,570.418,0.0
49159.0,STARLINK-3056,PAYLOAD,2023-01-03 15:58:34,14.98328098,0.0003194,69.9979,341.8158,260.1369,99.9429,9.9e-05,1.088e-05,0.0,0 STARLINK-3056,1 49159U 21082AF  23003.66567452  .00001088  00000-0  99000-4 0  9999,2 49159  69.9979 341.8158 0003194 260.1369  99.9429 14.98328098 73164,6950.199000000001,96.107,574.284,569.844,0.0
